OBJECT_NAME,OBJECT_ID,EPOCH,MEAN_MOTION,ECCENTRICITY,INCLINATION,RA_OF_ASC_NODE,ARG_OF_PERICENTER,MEAN_ANOMALY,EPHEMERIS_TYPE,CLASSIFICATION_TYPE,NORAD_CAT_ID,ELEMENT_SET_NO,REV_AT_EPOCH,BSTAR,MEAN_MOTION_DOT,MEAN_MOTION_DDOT
STARLINK-37618,2026-115T,2026-06-09T16:29:19.468032,15.79432819,.00058415,97.2832,177.7733,166.9614,193.1806,0,U,69228,999,350,-.29180861E-2,-.497124E-2,0
STARLINK-37679,2026-115U,2026-06-09T19:33:25.028064,15.80437281,.0001292,97.2831,177.9050,91.3132,268.8284,0,U,69229,999,352,-.2878083E-2,-.511405E-2,0
STARLINK-37746,2026-115V,2026-06-09T16:33:34.155360,15.79440464,.00017751,97.2830,177.7685,139.9462,220.1937,0,U,69230,999,350,-.6529213E-2,-.1042396E-1,0
STARLINK-37557,2026-115W,2026-06-09T11:55:36.795360,15.80870270,.00037506,97.2834,177.5728,332.0612,28.0454,0,U,69231,999,347,.22562327E-2,.456594E-2,0
STARLINK-37745,2026-115X,2026-06-09T19:25:09.941376,15.80866190,.00013974,97.2833,177.9136,83.5985,276.5443,0,U,69232,999,352,.70765587E-3,.137886E-2,0
STARLINK-37739,2026-115Y,2026-06-09T22:00:01.999584,15.74777072,.00018445,97.2839,178.0095,87.2993,122.2054,0,U,69233,999,352,-.19703839E-1,-.2473436E-1,0
STARLINK-37755,2026-115Z,2026-06-09T22:00:01.999584,15.75177685,.000129,97.2843,177.9865,80.4469,72.7098,0,U,69234,999,352,.54032135E-4,.7933E-4,0
TJS-24,2026-116A,2026-06-09T20:12:21.575232,1.00270522,.00006372,0.0248,246.9730,172.5792,232.0553,0,U,69235,999,15,0,-.214E-5,0
STARLINK-37665,2026-117A,2026-06-09T22:00:01.999584,15.81988809,.00009413,53.1587,280.1200,45.0016,312.5801,0,U,69238,999,300,-.20502574E-4,-.497E-4,0
STARLINK-37558,2026-117B,2026-06-09T22:00:01.999584,15.81916510,.00010692,53.1585,280.1088,58.8578,304.1012,0,U,69239,999,300,.81414925E-3,.171312E-2,0
STARLINK-37680,2026-117C,2026-06-09T22:00:01.999584,15.82012057,.0001164,53.1586,280.0914,51.5537,319.6478,0,U,69240,999,299,-.2439401E-3,-.51172E-3,0
STARLINK-37742,2026-117D,2026-06-09T22:00:01.999584,15.82002283,.00007004,53.1588,280.0709,72.2464,309.1284,0,U,69241,999,300,-.19705764E-3,-.41498E-3,0
STARLINK-37718,2026-117E,2026-06-09T22:00:01.999584,15.82014604,.00009549,53.1590,280.0560,79.7746,308.6266,0,U,69242,999,299,-.2998325E-3,-.62657E-3,0
STARLINK-37735,2026-117F,2026-06-09T22:00:01.999584,15.81987187,.0001078,53.1588,280.0543,63.3543,325.6648,0,U,69243,999,300,-.501855E-4,-.11128E-3,0
STARLINK-37757,2026-117G,2026-06-09T22:00:01.999584,15.81983106,.00006305,53.1588,280.0263,78.7499,323.9151,0,U,69244,999,300,-.25641976E-4,-.6035E-4,0
STARLINK-37767,2026-117H,2026-06-09T22:00:01.999584,15.82021772,.00009749,53.1583,279.9758,86.5023,340.4564,0,U,69245,999,300,-.37805076E-3,-.787E-3,0
STARLINK-35759,2026-117J,2026-06-09T22:00:01.999584,15.81987530,.00006153,53.1584,279.9674,96.2034,334.6628,0,U,69246,999,305,-.87979751E-4,-.18955E-3,0
STARLINK-37238,2026-117K,2026-06-09T22:00:01.999584,15.81996699,.00010724,53.1600,279.9148,76.1451,20.0085,0,U,69247,999,300,-.58261033E-4,-.12808E-3,0
STARLINK-37412,2026-117L,2026-06-09T22:00:01.999584,15.82012813,.00011557,53.1580,279.8751,67.2331,48.1099,0,U,69248,999,307,-.16323984E-3,-.34545E-3,0
STARLINK-37398,2026-117M,2026-06-09T22:00:01.999584,15.81272721,.00008076,53.1582,279.8657,41.0800,78.7352,0,U,69249,999,307,-.32235479E-2,-.605371E-2,0
STARLINK-37499,2026-117N,2026-06-09T22:00:01.999584,15.81974286,.00010578,53.1581,279.8543,72.1043,53.0369,0,U,69250,999,307,.21161991E-3,.43464E-3,0
STARLINK-37489,2026-117P,2026-06-09T22:00:01.999584,15.81966463,.00004428,53.1582,279.8337,64.7440,70.4300,0,U,69251,999,307,.20118668E-3,.41261E-3,0
STARLINK-37434,2026-117Q,2026-06-09T22:00:01.999584,15.82018926,.00011848,53.1579,279.7984,70.6075,81.4911,0,U,69252,999,300,-.25950347E-3,-.54389E-3,0
STARLINK-37368,2026-117R,2026-06-09T22:00:01.999584,15.82453238,.00010896,53.1574,279.7192,23.6139,166.6874,0,U,69253,999,307,-.35821938E-2,-.703062E-2,0
STARLINK-37517,2026-117S,2026-06-09T22:00:01.999584,15.82809846,.00012203,53.1570,279.7043,51.4993,146.0964,0,U,69254,999,307,-.57143016E-2,-.1109071E-1,0
STARLINK-37378,2026-117T,2026-06-09T22:00:01.999584,15.82423380,.00010442,53.1574,279.6995,34.1342,165.5894,0,U,69255,999,299,-.33489573E-2,-.659661E-2,0
STARLINK-37396,2026-117U,2026-06-09T22:00:01.999584,15.82874067,.00010278,53.1570,279.6703,52.2218,161.1899,0,U,69256,999,307,-.61582758E-2,-.1189032E-1,0
STARLINK-37508,2026-117V,2026-06-09T22:00:01.999584,15.84556221,.00010722,53.1562,279.6497,61.2409,161.8144,0,U,69257,999,299,-.48204873E-2,-.1009195E-1,0
STARLINK-37276,2026-117W,2026-06-09T22:00:01.999584,15.91264161,.00006651,53.1550,279.4437,55.6661,266.3283,0,U,69258,999,299,-.64391866E-2,-.2089452E-1,.11719845E-2
