STARLINK-37618          
1 69228U 26115T   26160.68703088 -.00497124  00000+0 -29181-2 0  9998
2 69228  97.2832 177.7733 0005841 166.9614 193.1806 15.79432819  3501
STARLINK-37679          
1 69229U 26115U   26160.81487301 -.00511405  00000+0 -28781-2 0  9995
2 69229  97.2831 177.9050 0001292  91.3132 268.8284 15.80437281  3529
STARLINK-37746          
1 69230U 26115V   26160.68997865 -.01042396  00000+0 -65292-2 0  9990
2 69230  97.2830 177.7685 0001775 139.9462 220.1937 15.79440464  3502
STARLINK-37557          
1 69231U 26115W   26160.49695365  .00456594  00000+0  22562-2 0  9999
2 69231  97.2834 177.5728 0003750 332.0612  28.0454 15.80870270  3470
STARLINK-37745          
1 69232U 26115X   26160.80914284  .00137886  00000+0  70766-3 0  9999
2 69232  97.2833 177.9136 0001397  83.5985 276.5443 15.80866190  3523
STARLINK-37739          
1 69233U 26115Y   26160.91668981 -.02473436  00000+0 -19704-1 0  9993
2 69233  97.2839 178.0095 0001844  87.2993 122.2054 15.74777072  3521
STARLINK-37755          
1 69234U 26115Z   26160.91668981  .00007933  00000+0  54032-4 0  9991
2 69234  97.2843 177.9865 0001290  80.4469  72.7098 15.75177685  3520
TJS-24                  
1 69235U 26116A   26160.84191638 -.00000214  00000+0  00000+0 0  9992
2 69235   0.0248 246.9730 0000637 172.5792 232.0553  1.00270522   156
STARLINK-37665          
1 69238U 26117A   26160.91668981 -.00004970  00000+0 -20503-4 0  9993
2 69238  53.1587 280.1200 0000941  45.0016 312.5801 15.81988809  3002
STARLINK-37558          
1 69239U 26117B   26160.91668981  .00171312  00000+0  81415-3 0  9995
2 69239  53.1585 280.1088 0001069  58.8578 304.1012 15.81916510  3003
STARLINK-37680          
1 69240U 26117C   26160.91668981 -.00051172  00000+0 -24394-3 0  9993
2 69240  53.1586 280.0914 0001164  51.5537 319.6478 15.82012057  2992
STARLINK-37742          
1 69241U 26117D   26160.91668981 -.00041498  00000+0 -19706-3 0  9995
2 69241  53.1588 280.0709 0000700  72.2464 309.1284 15.82002283  3003
STARLINK-37718          
1 69242U 26117E   26160.91668981 -.00062657  00000+0 -29983-3 0  9994
2 69242  53.1590 280.0560 0000954  79.7746 308.6266 15.82014604  2999
STARLINK-37735          
1 69243U 26117F   26160.91668981 -.00011128  00000+0 -50186-4 0  9992
2 69243  53.1588 280.0543 0001078  63.3543 325.6648 15.81987187  3000
STARLINK-37757          
1 69244U 26117G   26160.91668981 -.00006035  00000+0 -25642-4 0  9993
2 69244  53.1588 280.0263 0000630  78.7499 323.9151 15.81983106  3000
STARLINK-37767          
1 69245U 26117H   26160.91668981 -.00078700  00000+0 -37805-3 0  9995
2 69245  53.1583 279.9758 0000974  86.5023 340.4564 15.82021772  3008
STARLINK-35759          
1 69246U 26117J   26160.91668981 -.00018955  00000+0 -87980-4 0  9992
2 69246  53.1584 279.9674 0000615  96.2034 334.6628 15.81987530  3052
STARLINK-37238          
1 69247U 26117K   26160.91668981 -.00012808  00000+0 -58261-4 0  9994
2 69247  53.1600 279.9148 0001072  76.1451  20.0085 15.81996699  3000
STARLINK-37412          
1 69248U 26117L   26160.91668981 -.00034545  00000+0 -16324-3 0  9990
2 69248  53.1580 279.8751 0001155  67.2331  48.1099 15.82012813  3078
STARLINK-37398          
1 69249U 26117M   26160.91668981 -.00605371  00000+0 -32235-2 0  9990
2 69249  53.1582 279.8657 0000807  41.0800  78.7352 15.81272721  3076
STARLINK-37499          
1 69250U 26117N   26160.91668981  .00043464  00000+0  21162-3 0  9997
2 69250  53.1581 279.8543 0001057  72.1043  53.0369 15.81974286  3072
STARLINK-37489          
1 69251U 26117P   26160.91668981  .00041261  00000+0  20119-3 0  9992
2 69251  53.1582 279.8337 0000442  64.7440  70.4300 15.81966463  3076
STARLINK-37434          
1 69252U 26117Q   26160.91668981 -.00054389  00000+0 -25950-3 0  9998
2 69252  53.1579 279.7984 0001184  70.6075  81.4911 15.82018926  3000
STARLINK-37368          
1 69253U 26117R   26160.91668981 -.00703062  00000+0 -35822-2 0  9996
2 69253  53.1574 279.7192 0001089  23.6139 166.6874 15.82453238  3070
STARLINK-37517          
1 69254U 26117S   26160.91668981 -.01109071  00000+0 -57143-2 0  9998
2 69254  53.1570 279.7043 0001220  51.4993 146.0964 15.82809846  3078
STARLINK-37378          
1 69255U 26117T   26160.91668981 -.00659661  00000+0 -33490-2 0  9992
2 69255  53.1574 279.6995 0001044  34.1342 165.5894 15.82423380  2991
STARLINK-37396          
1 69256U 26117U   26160.91668981 -.01189032  00000+0 -61583-2 0  9998
2 69256  53.1570 279.6703 0001027  52.2218 161.1899 15.82874067  3078
STARLINK-37508          
1 69257U 26117V   26160.91668981 -.01009195  00000+0 -48205-2 0  9996
2 69257  53.1562 279.6497 0001072  61.2409 161.8144 15.84556221  2993
STARLINK-37276          
1 69258U 26117W   26160.91668981 -.02089452  11720-2 -64392-2 0  9991
2 69258  53.1550 279.4437 0000665  55.6661 266.3283 15.91264161  2999
